[{"OBJECT_NAME":"ONEWEB-0701","OBJECT_ID":"2024-188P","EPOCH":"2026-06-14T04:18:27.050400","MEAN_MOTION":13.1037072,"ECCENTRICITY":0.0001532,"INCLINATION":87.8837,"RA_OF_ASC_NODE":36.8643,"ARG_OF_PERICENTER":110.658,"MEAN_ANOMALY":249.4712,"EPHEMERIS_TYPE":0,"CLASSIFICATION_TYPE":"U","NORAD_CAT_ID":61607,"ELEMENT_SET_NO":999,"REV_AT_EPOCH":8291,"BSTAR":0.0015267,"MEAN_MOTION_DOT":5.46e-06,"MEAN_MOTION_DDOT":0.0},{"OBJECT_NAME":"ONEWEB-0702","OBJECT_ID":"2024-188Q","EPOCH":"2026-06-14T02:53:10.851072","MEAN_MOTION":13.11419424,"ECCENTRICITY":0.0001947,"INCLINATION":87.8906,"RA_OF_ASC_NODE":21.597,"ARG_OF_PERICENTER":116.463,"MEAN_ANOMALY":243.6698,"EPHEMERIS_TYPE":0,"CLASSIFICATION_TYPE":"U","NORAD_CAT_ID":61608,"ELEMENT_SET_NO":999,"REV_AT_EPOCH":8408,"BSTAR":0.0013007,"MEAN_MOTION_DOT":4.74e-06,"MEAN_MOTION_DDOT":0.0},{"OBJECT_NAME":"ONEWEB-0704","OBJECT_ID":"2024-188R","EPOCH":"2026-06-14T02:11:46.222080","MEAN_MOTION":13.10374112,"ECCENTRICITY":0.0002139,"INCLINATION":87.8846,"RA_OF_ASC_NODE":36.8714,"ARG_OF_PERICENTER":113.4286,"MEAN_ANOMALY":246.7067,"EPHEMERIS_TYPE":0,"CLASSIFICATION_TYPE":"U","NORAD_CAT_ID":61609,"ELEMENT_SET_NO":999,"REV_AT_EPOCH":8288,"BSTAR":0.0018974,"MEAN_MOTION_DOT":6.75e-06,"MEAN_MOTION_DDOT":0.0},{"OBJECT_NAME":"ONEWEB-0705","OBJECT_ID":"2024-188S","EPOCH":"2026-06-14T04:08:53.499552","MEAN_MOTION":13.10388379,"ECCENTRICITY":0.0002623,"INCLINATION":87.8845,"RA_OF_ASC_NODE":36.8606,"ARG_OF_PERICENTER":99.8496,"MEAN_ANOMALY":260.2928,"EPHEMERIS_TYPE":0,"CLASSIFICATION_TYPE":"U","NORAD_CAT_ID":61610,"ELEMENT_SET_NO":999,"REV_AT_EPOCH":7506,"BSTAR":0.0083033,"MEAN_MOTION_DOT":2.913e-05,"MEAN_MOTION_DDOT":0.0},{"OBJECT_NAME":"ONEWEB-0706","OBJECT_ID":"2024-188T","EPOCH":"2026-06-14T03:47:22.302528","MEAN_MOTION":13.10376165,"ECCENTRICITY":0.0002044,"INCLINATION":87.8839,"RA_OF_ASC_NODE":36.869,"ARG_OF_PERICENTER":99.9715,"MEAN_ANOMALY":260.1643,"EPHEMERIS_TYPE":0,"CLASSIFICATION_TYPE":"U","NORAD_CAT_ID":61611,"ELEMENT_SET_NO":999,"REV_AT_EPOCH":8298,"BSTAR":0.0012456000000000001,"MEAN_MOTION_DOT":4.48e-06,"MEAN_MOTION_DDOT":0.0},{"OBJECT_NAME":"ONEWEB-0707","OBJECT_ID":"2024-188U","EPOCH":"2026-06-14T03:56:56.395968","MEAN_MOTION":13.10374798,"ECCENTRICITY":0.0001938,"INCLINATION":87.8844,"RA_OF_ASC_NODE":36.8616,"ARG_OF_PERICENTER":100.6595,"MEAN_ANOMALY":259.4751,"EPHEMERIS_TYPE":0,"CLASSIFICATION_TYPE":"U","NORAD_CAT_ID":61612,"ELEMENT_SET_NO":999,"REV_AT_EPOCH":8292,"BSTAR":0.0018525,"MEAN_MOTION_DOT":6.59e-06,"MEAN_MOTION_DDOT":0.0},{"OBJECT_NAME":"ONEWEB-0708","OBJECT_ID":"2024-188V","EPOCH":"2026-06-14T04:23:13.816320","MEAN_MOTION":13.10370107,"ECCENTRICITY":0.0002369,"INCLINATION":87.8831,"RA_OF_ASC_NODE":36.8762,"ARG_OF_PERICENTER":84.8083,"MEAN_ANOMALY":275.3315,"EPHEMERIS_TYPE":0,"CLASSIFICATION_TYPE":"U","NORAD_CAT_ID":61613,"ELEMENT_SET_NO":999,"REV_AT_EPOCH":8290,"BSTAR":0.0010721,"MEAN_MOTION_DOT":3.87e-06,"MEAN_MOTION_DDOT":0.0}]